ONEWEB-0326             
1 49195U 21083K   23357.88582395  .00000088  00000+0  18963-3 0  9995
2 49195  87.9217 155.7772 0001510  70.1679 289.9616 13.18686960110556
ONEWEB-0327             
1 49196U 21083L   23358.01129168 -.00003233  00000+0 -82408-2 0  9998
2 49196  87.9209 155.7647 0001437  77.8939 282.2354 13.18656587111873
ONEWEB-0328             
1 49197U 21083M   23357.86041275  .00000312  00000+0  81886-3 0  9996
2 49197  87.8992 140.6208 0001624  95.0205 265.1110 13.13467692111922
ONEWEB-0331             
1 49198U 21083N   23357.87949728  .00000047  00000+0  87331-4 0  9995
2 49198  87.9218 155.7701 0001602  89.9726 270.1590 13.18683987110565
ONEWEB-0333             
1 49199U 21083P   23357.93181912  .00000354  00000+0  93406-3 0  9996
2 49199  87.9002 140.6134 0001414 107.1591 252.9693 13.13469919111941
ONEWEB-0334             
1 49200U 21083Q   23357.83247255  .00000190  00000+0  43607-3 0  9997
2 49200  87.9197  94.9104 0001666 142.2596 217.8654 13.20771049117155
ONEWEB-0335             
1 49201U 21083R   23357.92706011 -.00000288  00000+0 -82477-3 0  9996
2 49201  87.9002 140.6026 0001849  96.9195 263.2144 13.13472822111956
ONEWEB-0336             
1 49202U 21083S   23357.89690162 -.00000292  00000+0 -83377-3 0  9997
2 49202  87.9000 140.6072 0001352 105.4996 254.6283 13.13471750113241
ONEWEB-0337             
1 49203U 21083T   23357.90628583 -.00000160  00000+0 -47210-3 0  9998
2 49203  87.9001 140.6040 0001676  96.0764 264.0556 13.13472090111946
ONEWEB-0338             
1 49204U 21083U   23357.76303332  .00000049  00000+0  87359-4 0  9998
2 49204  87.9201  94.8978 0001941 120.7302 239.4022 13.20772515117164
ONEWEB-0339             
1 49205U 21083V   23357.91752761 -.00010115  00000+0 -27745-1 0  9997
2 49205  87.8991 140.6009 0001330  93.6431 266.4850 13.13519278113227
ONEWEB-0340             
1 49206U 21083W   23357.86486073 -.00006184  00000+0 -15744-1 0  9999
2 49206  87.9227 155.7680 0001810  93.5011 266.6328 13.18622897110528
ONEWEB-0341             
1 49207U 21083X   23357.94905093  .00000032  00000+0  48896-4 0  9998
2 49207  87.9226 155.7641 0002327  95.6803 264.4594 13.18684655111848
ONEWEB-0342             
1 49208U 21083Y   23357.76934502  .00000118  00000+0  25816-3 0  9997
2 49208  87.9194  94.9219 0001736 114.1120 246.0195 13.20771111117138
ONEWEB-0343             
1 49209U 21083Z   23357.86884437  .00005767  00000+0  14572-1 0  9990
2 49209  87.9211 155.7985 0002399 103.1381 257.0019 13.18748801110595
ONEWEB-0344             
1 49210U 21083AA  23357.96039317 -.00000202  00000+0 -58818-3 0  9996
2 49210  87.9004 140.6043 0001487  94.3855 265.7444 13.13471882113238
ONEWEB-0345             
1 49211U 21083AB  23357.90167597 -.00000212  00000+0 -61425-3 0  9992
2 49211  87.8989 140.5973 0001962  83.7625 276.3727 13.13472857111936
ONEWEB-0346             
1 49212U 21083AC  23357.87751071 -.00006071  00000+0 -15456-1 0  9995
2 49212  87.9212 155.7898 0001712  71.4983 288.6335 13.18620155110532
ONEWEB-0348             
1 49213U 21083AD  23357.83565240  .00000077  00000+0  15758-3 0  9998
2 49213  87.9192  94.8671 0002016  83.1386 276.9977 13.20774301117172
ONEWEB-0350             
1 49214U 21083AE  23357.91117962 -.00000007  00000+0 -55230-4 0  9997
2 49214  87.8998 140.5856 0001788  88.4852 271.6482 13.13473805111962
ONEWEB-0351             
1 49215U 21083AF  23357.82932270  .00000065  00000+0  12788-3 0  9997
2 49215  87.9198  94.8723 0002025 117.3779 242.7560 13.20772559117132
ONEWEB-0352             
1 49216U 21083AG  23357.89214720 -.00000297  00000+0 -84763-3 0  9999
2 49216  87.9003 140.6150 0001661 115.7317 244.3984 13.13472782112058
ONEWEB-0354             
1 49217U 21083AH  23357.77881173  .00000041  00000+0  68975-4 0  9992
2 49217  87.9196  94.8623 0002068 101.2268 258.9098 13.20769790117164
ONEWEB-0355             
1 49218U 21083AJ  23357.92229978  .00000303  00000+0  79511-3 0  9997
2 49218  87.9001 140.6087 0001682 104.2319 255.8997 13.13472421111932
ONEWEB-0357             
1 49219U 21083AK  23357.77565518 -.00000117  00000+0 -32015-3 0  9997
2 49219  87.9198  94.8857 0001763 102.9356 257.1974 13.20771311117160
ONEWEB-0332             
1 49279U 21090A   23357.80804946 -.00000527  00000+0 -14550-2 0  9994
2 49279  87.8973 110.1438 0002367 107.6077 252.5311 13.14505187108507
ONEWEB-0347             
1 49280U 21090B   23357.76618494 -.00000169  00000+0 -44807-3 0  9993
2 49280  87.9246  94.8814 0001543 123.1394 236.9888 13.20771113111396
ONEWEB-0349             
1 49281U 21090C   23357.79776930 -.00000029  00000+0 -10288-3 0  9998
2 49281  87.9201  94.8724 0001799  93.3532 266.7807 13.20773228110180
ONEWEB-0353             
1 49282U 21090D   23357.80011372 -.00000167  00000+0 -48446-3 0  9993
2 49282  87.8978 110.1290 0001516 119.7818 240.3463 13.14501429108502
ONEWEB-0356             
1 49283U 21090E   23357.79617837  .00000033  00000+0  48462-4 0  9999
2 49283  87.9194  94.8710 0000996  76.8852 283.2392 13.20771250110183
ONEWEB-0358             
1 49284U 21090F   23357.82616685  .00002618  00000+0  64070-2 0  9996
2 49284  87.9203  94.8480 0001678  98.3933 261.7391 13.20759018110915
ONEWEB-0359             
1 49285U 21090G   23357.82301973  .00000171  00000+0  38915-3 0  9990
2 49285  87.9194  94.8719 0002150 111.1582 248.9781 13.20757059110890
ONEWEB-0360             
1 49286U 21090H   23357.81353874  .00000045  00000+0  79096-4 0  9993
2 49286  87.9196  94.8763 0001840 105.4558 254.6779 13.20771299110204
ONEWEB-0361             
1 49287U 21090J   23357.79459892 -.00001787  00000+0 -44276-2 0  9994
2 49287  87.9196  94.8751 0001571 104.4464 255.6843 13.20779618110653
ONEWEB-0362             
1 49288U 21090K   23357.86327810  .00000018  00000+0  11849-4 0  9993
2 49288  87.9193 125.3905 0001908 109.4076 250.7263 13.19725752108196
ONEWEB-0363             
1 49289U 21090L   23357.81038520 -.00016704  00000+0 -41136-1 0  9996
2 49289  87.9193  94.8677 0001408  63.6087 296.5191 13.20860038110663
ONEWEB-0364             
1 49290U 21090M   23357.77250643 -.00003909  00000+0 -96467-2 0  9996
2 49290  87.9205  94.8956 0001944 105.4279 254.7069 13.20789459111794
ONEWEB-0365             
1 49291U 21090N   23357.87274772 -.00000060  00000+0 -18117-3 0  9999
2 49291  87.9197 125.3793 0001688 108.8775 251.2541 13.19726917106886
ONEWEB-0366             
1 49292U 21090P   23357.87305921 -.00000071  00000+0 -22504-3 0  9998
2 49292  87.8979 110.1228 0001412 111.7379 248.3901 13.14501267109791
ONEWEB-0367             
1 49293U 21090Q   23357.80881228  .00000033  00000+0  49380-4 0  9999
2 49293  87.9193  94.8605 0001530 116.3196 243.8094 13.20773682110184
ONEWEB-0368             
1 49294U 21090R   23357.78197333  .00000226  00000+0  52493-3 0  9996
2 49294  87.9205  94.8944 0000882 127.8905 232.2308 13.20772939111331
ONEWEB-0369             
1 49295U 21090S   23357.86800777 -.00000201  00000+0 -53415-3 0  9999
2 49295  87.9192 125.3727 0001401 106.1745 253.9542 13.19725580106877
ONEWEB-0370             
1 49296U 21090T   23357.81827795 -.00000065  00000+0 -19238-3 0  9997
2 49296  87.9193  94.8644 0001671 104.5991 255.5327 13.20773525110228
ONEWEB-0371             
1 49297U 21090U   23357.87592580 -.00000018  00000+0 -76533-4 0  9995
2 49297  87.9196 125.3604 0001613 108.8040 251.3267 13.19727887108206
ONEWEB-0372             
1 49298U 21090V   23357.80709904  .00000026  00000+0  33246-4 0  9990
2 49298  87.9203  94.8725 0001698 113.6477 246.4834 13.20773872110194
ONEWEB-0373             
1 49299U 21090W   23357.83406301 -.00000076  00000+0 -21853-3 0  9996
2 49299  87.9220  94.8852 0001236  93.0415 267.0860 13.20773166112686
ONEWEB-0374             
1 49300U 21090X   23357.86037649  .00000115  00000+0  27665-3 0  9996
2 49300  87.8976 110.1124 0001492 110.7249 249.4041 13.14503902108497
ONEWEB-0375             
1 49301U 21090Y   23358.20023013  .00000011  00000+0 -48953-5 0  9997
2 49301  87.9189  94.7877 0001444  76.8631 283.2664 13.20773512112227
ONEWEB-0376             
1 49302U 21090Z   23357.79852031  .00000025  00000+0  30429-4 0  9993
2 49302  87.9197 125.3947 0001638 116.7432 243.3869 13.19725435106905
ONEWEB-0377             
1 49303U 21090AA  23357.80738964 -.00003609  00000+0 -89096-2 0  9999
2 49303  87.9188  94.8571 0001875 101.2728 258.8616 13.20793054110875
ONEWEB-0378             
1 49304U 21090AB  23357.78276063  .00000046  00000+0  81956-4 0  9993
2 49304  87.9205  94.8754 0001326 105.4175 254.7105 13.20773127110138
ONEWEB-0379             
1 49305U 21090AC  23357.85563137  .00000230  00000+0  58658-3 0  9990
2 49305  87.8976 110.1153 0001480 108.9715 251.1575 13.14502561108490
ONEWEB-0380             
1 49306U 21090AD  23357.87116733 -.00000303  00000+0 -79022-3 0  9990
2 49306  87.9195 125.3749 0001636  98.9087 261.2231 13.19725244106889
ONEWEB-0381             
1 49307U 21090AE  23357.87982980  .00004766  00000+0  11688-1 0  9993
2 49307  87.9237  94.8485 0001798 100.9345 259.1991 13.20748320110194
ONEWEB-0382             
1 49308U 21090AF  23357.79145933 -.00000027  00000+0 -99479-4 0  9999
2 49308  87.9191  94.8648 0001246  88.4547 271.6729 13.20774407110178
ONEWEB-0383             
1 49309U 21090AG  23357.84928156  .00000211  00000+0  53442-3 0  9994
2 49309  87.8984 110.1063 0001284 106.0797 254.0474 13.14504503108526
ONEWEB-0384             
1 49310U 21090AH  23358.16705582 -.00008677  00000+0 -21378-1 0  9995
2 49310  87.9204  94.7985 0001299  95.5724 264.5557 13.20817229111545
ONEWEB-0385             
1 49311U 21090AJ  23357.78354977 -.00000136  00000+0 -36600-3 0  9999
2 49311  87.9204  94.8766 0001627  85.4106 274.7213 13.20777572110155
ONEWEB-0386             
1 49312U 21090AK  23357.80091135  .00000342  00000+0  80872-3 0  9994
2 49312  87.9197  94.8800 0001834  70.3716 289.7615 13.20772225110170
